LEMUR-2-ROUNDTRIPPER    
1 62711U 25009DG  26183.19724351  .00010499  00000+0  76283-3 0  9996
2 62711  97.7231 265.8564 0004895  95.0137 265.1648 15.04035331 79884
LEMUR-2-MYNAMEISJEFF    
1 62712U 25009DH  26183.19565893  .00010446  00000+0  75924-3 0  9994
2 62712  97.7278 266.2449 0003709 126.9268 233.2298 15.04028484 79883
LEMUR-2-LEIA-PHILIP     
1 63246U 25052AN  26183.43990182  .00002006  00000+0  17769-3 0  9991
2 63246  97.6813  75.1327 0004392 156.0283 204.1144 14.97356498 70958
LEMUR-2-LIA-MARTIN      
1 63248U 25052AQ  26183.64004011  .00005802  00000+0  49698-3 0  9996
2 63248  97.6863  75.8271 0004686 122.6554 237.5121 14.97926983 70997
LEMUR-2-DELOITTE-1      
1 63259U 25052BB  26183.41806816  .00004296  00000+0  37152-3 0  9994
2 63259  97.6897  75.9405 0002511  67.7482 292.4006 14.97706500 70971
LEMUR-2-EMERSONROSE     
1 63261U 25052BD  26183.64525036  .00005208  00000+0  43236-3 0  9998
2 63261  97.6867  76.7500 0002501  76.9084 283.2418 14.99195276 71054
LEMUR-2-MARACHE-FRAN    
1 63262U 25052BE  26183.27643011  .00005439  00000+0  43930-3 0  9999
2 63262  97.6893  76.7354 0004328 315.5500  44.5376 15.00231365 71026
LEMUR-2-THEFALCONER     
1 63264U 25052BG  26183.51353554  .00004899  00000+0  42529-3 0  9990
2 63264  97.6840  75.6367 0001154  25.8688 334.2592 14.97488536 70986
LEMUR-2-UNTITLED-SC     
1 63351U 25061A   26183.42690346  .00004336  00000+0  24450-3 0  9999
2 63351  97.5644 158.6786 0017878 207.5549 152.4736 15.13575453 69898
LEMUR-2-ESPERANZA       
1 63352U 25061B   26183.46922360  .00004523  00000+0  25427-3 0  9991
2 63352  97.5653 158.8177 0017477 206.5802 153.4534 15.13669515 69903
LEMUR-2-KREMPEL-BRO2    
1 63353U 25061C   26183.42569623  .00004483  00000+0  24892-3 0  9997
2 63353  97.5698 159.3273 0018612 199.1906 160.8627 15.14106147 69914
LEMUR-2-THERMORAPTOR    
1 63354U 25061D   26183.47303719  .00004851  00000+0  26838-3 0  9996
2 63354  97.5704 159.4530 0018349 197.8088 162.2502 15.14191238 69927
LEMUR-2-NEUROSPICY      
1 63355U 25061E   26183.44353938  .00004047  00000+0  22402-3 0  9992
2 63355  97.5629 159.0381 0016114 200.8078 159.2500 15.14306072 69924
LEMUR-2-TILLINFINITY    
1 63356U 25061F   26183.47292317  .00004828  00000+0  26205-3 0  9991
2 63356  97.5617 159.3685 0017690 188.9379 171.1540 15.14891768 69953
LEMUR-2-KREMPEL-BRO1    
1 63357U 25061G   26183.44835147  .00004114  00000+0  22502-3 0  9997
2 63357  97.5618 159.2557 0018305 190.4249 169.6606 15.14697345 69949
LEMUR-2-LANGER2SPACE    
1 63358U 25061H   26183.41183633  .00004845  00000+0  26680-3 0  9993
2 63358  97.5622 159.0274 0016042 199.2864 160.7763 15.14392001 69920
LEMUR-2-BALTO           
1 63395U 25052BH  26183.26110633  .00006733  00000+0  54219-3 0  9994
2 63395  97.6926  76.6966 0006129  16.0329 344.1087 15.00252414 71027
LEMUR-2-KRISH           
1 64561U 25135AK  26183.32169870  .00006184  00000+0  55146-3 0  9996
2 64561  97.7757 298.0944 0001401 107.1377 252.9998 14.96342206 56185
LEMUR-2-HUBBLE-4        
1 64565U 25135AP  26183.54696618  .00001929  00000+0  18795-3 0  9990
2 64565  97.7710 297.2716 0001545 200.2756 159.8403 14.93656519 56167
LEMUR-2-SEJONG-2        
1 64586U 25135BL  26183.61418023  .00005341  00000+0  47115-3 0  9993
2 64586  97.7719 298.5307 0002734 274.9190  85.1719 14.96830933 56258
LEMUR-2-HUBBLE-5        
1 64840U 25135BT  26183.56026338  .00001475  00000+0  14306-3 0  9994
2 64840  97.7732 297.9402 0004113 292.4463  67.6321 14.94183263 56200
LEMUR-2-KARENDARRELL    
1 64841U 25135BU  26183.59226216  .00009205  00000+0  73699-3 0  9994
2 64841  97.7696 299.7762 0011148 145.6467 214.5479 15.00343923 56327
LEMUR-2-LUCILLE-ROSE    
1 65403U 25135BV  26183.56568941  .00007921  00000+0  63455-3 0  9992
2 65403  97.7740 299.7827 0013210 228.4002 131.6090 15.00348433 50942
LEMUR-2-AFFIE-WAUWIE    
1 66295U 25248C   26183.62122532  .00022617  00000+0  82533-3 0  9993
2 66295  45.3935  31.3325 0008240 184.8356 175.2454 15.27806899 36951
LEMUR-2-DEANANDMAEVE    
1 66678U 25276N   26183.19436209  .00007503  00000+0  35220-3 0  9998
2 66678  97.4208 256.4220 0004424 315.6162  44.4718 15.19917633 32697
LEMUR-2-STAS-GORBUK     
1 66686U 25276W   26183.47586863  .00007219  00000+0  34269-3 0  9996
2 66686  97.4242 256.7525 0003671 313.2597  46.8331 15.19542879 32732
LEMUR-2-TEODOR          
1 66768U 25276DG  26183.50865048  .00006844  00000+0  30971-3 0  9995
2 66768  97.4148 257.0404 0002372 101.2671 258.8831 15.21218275 32770
LEMUR-2-LAILA           
1 66776U 25276DQ  26183.21725096  .00007374  00000+0  33128-3 0  9996
2 66776  97.4169 256.8837 0002834 114.0058 246.1475 15.21439154 32734
LEMUR-2-CELIJO-SB-PK    
1 66781U 25276DW  26183.44557847  .00007687  00000+0  61945-3 0  9999
2 66781  97.5214 253.7211 0007767  95.7431 264.4679 15.00160507 24914
